[{"OBJECT_NAME":"LEMUR-1","OBJECT_ID":"2014-033AL","EPOCH":"2026-04-05T20:42:38.770272","MEAN_MOTION":14.84946317,"ECCENTRICITY":0.004752,"INCLINATION":97.7774,"RA_OF_ASC_NODE":247.3292,"ARG_OF_PERICENTER":316.5554,"MEAN_ANOMALY":43.192,"EPHEMERIS_TYPE":0,"CLASSIFICATION_TYPE":"U","NORAD_CAT_ID":40044,"ELEMENT_SET_NO":999,"REV_AT_EPOCH":63473,"BSTAR":0.0002974,"MEAN_MOTION_DOT":2.529e-5,"MEAN_MOTION_DDOT":0},{"OBJECT_NAME":"LEMUR-2-GREENBERG","OBJECT_ID":"2017-042N","EPOCH":"2026-04-05T18:16:01.125696","MEAN_MOTION":15.29105982,"ECCENTRICITY":0.0008092,"INCLINATION":97.3799,"RA_OF_ASC_NODE":276.8518,"ARG_OF_PERICENTER":258.5972,"MEAN_ANOMALY":101.4359,"EPHEMERIS_TYPE":0,"CLASSIFICATION_TYPE":"U","NORAD_CAT_ID":42837,"ELEMENT_SET_NO":999,"REV_AT_EPOCH":47731,"BSTAR":0.00078604,"MEAN_MOTION_DOT":0.00022195,"MEAN_MOTION_DDOT":0},{"OBJECT_NAME":"LEMUR-2-ANDIS","OBJECT_ID":"2017-042P","EPOCH":"2026-04-05T11:36:23.389920","MEAN_MOTION":15.31955718,"ECCENTRICITY":0.00083612,"INCLINATION":97.3673,"RA_OF_ASC_NODE":276.5408,"ARG_OF_PERICENTER":261.6475,"MEAN_ANOMALY":98.3818,"EPHEMERIS_TYPE":0,"CLASSIFICATION_TYPE":"U","NORAD_CAT_ID":42838,"ELEMENT_SET_NO":999,"REV_AT_EPOCH":47731,"BSTAR":0.00092649481,"MEAN_MOTION_DOT":0.00028612,"MEAN_MOTION_DDOT":0},{"OBJECT_NAME":"LEMUR-2-MONSON","OBJECT_ID":"2017-042Q","EPOCH":"2026-04-05T17:59:28.971168","MEAN_MOTION":15.26026274,"ECCENTRICITY":0.0005904,"INCLINATION":97.4056,"RA_OF_ASC_NODE":276.9117,"ARG_OF_PERICENTER":243.8249,"MEAN_ANOMALY":116.2382,"EPHEMERIS_TYPE":0,"CLASSIFICATION_TYPE":"U","NORAD_CAT_ID":42839,"ELEMENT_SET_NO":999,"REV_AT_EPOCH":47711,"BSTAR":0.00075357,"MEAN_MOTION_DOT":0.00019359,"MEAN_MOTION_DDOT":0},{"OBJECT_NAME":"LEMUR-2-FURIAUS","OBJECT_ID":"2017-042R","EPOCH":"2026-04-05T19:54:48.850848","MEAN_MOTION":15.27710655,"ECCENTRICITY":0.0006789,"INCLINATION":97.376,"RA_OF_ASC_NODE":275.0475,"ARG_OF_PERICENTER":320.0871,"MEAN_ANOMALY":39.9868,"EPHEMERIS_TYPE":0,"CLASSIFICATION_TYPE":"U","NORAD_CAT_ID":42840,"ELEMENT_SET_NO":999,"REV_AT_EPOCH":47715,"BSTAR":0.00101,"MEAN_MOTION_DOT":0.00027362,"MEAN_MOTION_DDOT":0},{"OBJECT_NAME":"LEMUR-2-PETERG","OBJECT_ID":"2017-042S","EPOCH":"2026-04-05T17:58:53.047776","MEAN_MOTION":15.31095307,"ECCENTRICITY":0.0003445,"INCLINATION":97.3993,"RA_OF_ASC_NODE":280.8248,"ARG_OF_PERICENTER":225.5418,"MEAN_ANOMALY":134.5542,"EPHEMERIS_TYPE":0,"CLASSIFICATION_TYPE":"U","NORAD_CAT_ID":42841,"ELEMENT_SET_NO":999,"REV_AT_EPOCH":47734,"BSTAR":0.00085118,"MEAN_MOTION_DOT":0.00025553,"MEAN_MOTION_DDOT":0},{"OBJECT_NAME":"LEMUR-2-DEMBITZ","OBJECT_ID":"2017-042T","EPOCH":"2026-04-05T15:52:21.669024","MEAN_MOTION":15.28097785,"ECCENTRICITY":0.0005927,"INCLINATION":97.3817,"RA_OF_ASC_NODE":277.8305,"ARG_OF_PERICENTER":272.0325,"MEAN_ANOMALY":88.0236,"EPHEMERIS_TYPE":0,"CLASSIFICATION_TYPE":"U","NORAD_CAT_ID":42842,"ELEMENT_SET_NO":999,"REV_AT_EPOCH":47726,"BSTAR":0.00085105,"MEAN_MOTION_DOT":0.00023301,"MEAN_MOTION_DDOT":0},{"OBJECT_NAME":"LEMUR-2-ZACHARY","OBJECT_ID":"2017-042W","EPOCH":"2026-04-05T11:55:17.198112","MEAN_MOTION":15.44542717,"ECCENTRICITY":0.00032417,"INCLINATION":97.365,"RA_OF_ASC_NODE":285.896,"ARG_OF_PERICENTER":268.6775,"MEAN_ANOMALY":91.4103,"EPHEMERIS_TYPE":0,"CLASSIFICATION_TYPE":"U","NORAD_CAT_ID":42845,"ELEMENT_SET_NO":999,"REV_AT_EPOCH":47796,"BSTAR":0.001033755,"MEAN_MOTION_DOT":0.00048138,"MEAN_MOTION_DDOT":0},{"OBJECT_NAME":"LEMUR-2-JIN-LUEN","OBJECT_ID":"2018-014C","EPOCH":"2026-04-05T19:01:28.142976","MEAN_MOTION":16.13545868,"ECCENTRICITY":0.0010806,"INCLINATION":97.5372,"RA_OF_ASC_NODE":29.0329,"ARG_OF_PERICENTER":163.8654,"MEAN_ANOMALY":196.2977,"EPHEMERIS_TYPE":0,"CLASSIFICATION_TYPE":"U","NORAD_CAT_ID":43182,"ELEMENT_SET_NO":999,"REV_AT_EPOCH":44977,"BSTAR":0.0021212,"MEAN_MOTION_DOT":0.02262001,"MEAN_MOTION_DDOT":0.0060696},{"OBJECT_NAME":"LEMUR-2-KADI","OBJECT_ID":"2018-014E","EPOCH":"2026-04-05T17:50:35.653344","MEAN_MOTION":15.70792997,"ECCENTRICITY":0.0006463,"INCLINATION":97.4616,"RA_OF_ASC_NODE":22.1026,"ARG_OF_PERICENTER":122.7948,"MEAN_ANOMALY":237.3938,"EPHEMERIS_TYPE":0,"CLASSIFICATION_TYPE":"U","NORAD_CAT_ID":43184,"ELEMENT_SET_NO":999,"REV_AT_EPOCH":44962,"BSTAR":0.0011935,"MEAN_MOTION_DOT":0.00150423,"MEAN_MOTION_DDOT":0},{"OBJECT_NAME":"LEMUR-2-AMANDA-SVANTE","OBJECT_ID":"2021-034B","EPOCH":"2026-04-05T17:37:02.510976","MEAN_MOTION":15.30290766,"ECCENTRICITY":0.0004316,"INCLINATION":97.579,"RA_OF_ASC_NODE":172.3399,"ARG_OF_PERICENTER":139.9741,"MEAN_ANOMALY":220.1818,"EPHEMERIS_TYPE":0,"CLASSIFICATION_TYPE":"U","NORAD_CAT_ID":48269,"ELEMENT_SET_NO":999,"REV_AT_EPOCH":26996,"BSTAR":0.0011998,"MEAN_MOTION_DOT":0.00035211,"MEAN_MOTION_DDOT":0},{"OBJECT_NAME":"LEMUR-2-SPECIAL-K","OBJECT_ID":"2021-034F","EPOCH":"2026-04-05T17:53:15.037152","MEAN_MOTION":15.50064032,"ECCENTRICITY":0.0002135,"INCLINATION":97.5671,"RA_OF_ASC_NODE":178.304,"ARG_OF_PERICENTER":188.2812,"MEAN_ANOMALY":171.8404,"EPHEMERIS_TYPE":0,"CLASSIFICATION_TYPE":"U","NORAD_CAT_ID":48273,"ELEMENT_SET_NO":999,"REV_AT_EPOCH":27042,"BSTAR":0.0018104,"MEAN_MOTION_DOT":0.0010278,"MEAN_MOTION_DDOT":0},{"OBJECT_NAME":"LEMUR-2-EMBRIONOVIS","OBJECT_ID":"2023-084AQ","EPOCH":"2026-04-05T20:27:53.023392","MEAN_MOTION":15.35666375,"ECCENTRICITY":0.0008804,"INCLINATION":97.6187,"RA_OF_ASC_NODE":237.4272,"ARG_OF_PERICENTER":205.1323,"MEAN_ANOMALY":154.9493,"EPHEMERIS_TYPE":0,"CLASSIFICATION_TYPE":"U","NORAD_CAT_ID":56970,"ELEMENT_SET_NO":999,"REV_AT_EPOCH":15657,"BSTAR":0.00054755,"MEAN_MOTION_DOT":0.00018953,"MEAN_MOTION_DDOT":0},{"OBJECT_NAME":"LEMUR-2-MANO","OBJECT_ID":"2023-100E","EPOCH":"2026-04-05T14:46:53.485248","MEAN_MOTION":15.70660577,"ECCENTRICITY":0.0009084,"INCLINATION":99.4463,"RA_OF_ASC_NODE":127.2766,"ARG_OF_PERICENTER":189.1653,"MEAN_ANOMALY":170.9439,"EPHEMERIS_TYPE":0,"CLASSIFICATION_TYPE":"U","NORAD_CAT_ID":57390,"ELEMENT_SET_NO":999,"REV_AT_EPOCH":15069,"BSTAR":0.0018422,"MEAN_MOTION_DOT":0.00233655,"MEAN_MOTION_DDOT":0},{"OBJECT_NAME":"LEMUR-2-DEVERILL-M-T","OBJECT_ID":"2023-100F","EPOCH":"2026-04-05T13:30:42.811200","MEAN_MOTION":15.36399859,"ECCENTRICITY":0.0005425,"INCLINATION":99.4552,"RA_OF_ASC_NODE":113.5691,"ARG_OF_PERICENTER":283.5101,"MEAN_ANOMALY":76.5532,"EPHEMERIS_TYPE":0,"CLASSIFICATION_TYPE":"U","NORAD_CAT_ID":57391,"ELEMENT_SET_NO":999,"REV_AT_EPOCH":15008,"BSTAR":0.00081649,"MEAN_MOTION_DOT":0.00028972,"MEAN_MOTION_DDOT":0},{"OBJECT_NAME":"LEMUR-2-BASS","OBJECT_ID":"2023-174D","EPOCH":"2026-04-05T17:17:48.096384","MEAN_MOTION":15.40855128,"ECCENTRICITY":0.0008246,"INCLINATION":97.3851,"RA_OF_ASC_NODE":179.5525,"ARG_OF_PERICENTER":78.0742,"MEAN_ANOMALY":282.1428,"EPHEMERIS_TYPE":0,"CLASSIFICATION_TYPE":"U","NORAD_CAT_ID":58259,"ELEMENT_SET_NO":999,"REV_AT_EPOCH":13419,"BSTAR":0.0005167,"MEAN_MOTION_DOT":0.00021174,"MEAN_MOTION_DDOT":0}]
