LEMUR-1                 
1 40044U 14033AL  26095.86294873  .00002529  00000+0  29740-3 0  9994
2 40044  97.7774 247.3292 0047520 316.5554  43.1920 14.84946317634730
LEMUR-2-GREENBERG       
1 42837U 17042N   26095.76112414  .00022195  00000+0  78604-3 0  9992
2 42837  97.3799 276.8518 0008092 258.5972 101.4359 15.29105982477311
LEMUR-2-ANDIS           
1 42838U 17042P   26095.48360405  .00028612  00000+0  92649-3 0  9992
2 42838  97.3673 276.5408 0008361 261.6475  98.3818 15.31955718477317
LEMUR-2-MONSON          
1 42839U 17042Q   26095.74964087  .00019359  00000+0  75357-3 0  9993
2 42839  97.4056 276.9117 0005904 243.8249 116.2382 15.26026274477110
LEMUR-2-FURIAUS         
1 42840U 17042R   26095.82973207  .00027362  00000+0  10100-2 0  9995
2 42840  97.3760 275.0475 0006789 320.0871  39.9868 15.27710655477159
LEMUR-2-PETERG          
1 42841U 17042S   26095.74922509  .00025553  00000+0  85118-3 0  9998
2 42841  97.3993 280.8248 0003445 225.5418 134.5542 15.31095307477349
LEMUR-2-DEMBITZ         
1 42842U 17042T   26095.66136191  .00023301  00000+0  85105-3 0  9999
2 42842  97.3817 277.8305 0005927 272.0325  88.0236 15.28097785477268
LEMUR-2-ZACHARY         
1 42845U 17042W   26095.49672683  .00048138  00000+0  10338-2 0  9994
2 42845  97.3650 285.8960 0003241 268.6775  91.4103 15.44542717477965
LEMUR-2-JIN-LUEN        
1 43182U 18014C   26095.79268684  .02262001  60696-2  21212-2 0  9996
2 43182  97.5372  29.0329 0010806 163.8654 196.2977 16.13545868449775
LEMUR-2-KADI            
1 43184U 18014E   26095.74346821  .00150423  00000+0  11935-2 0  9996
2 43184  97.4616  22.1026 0006463 122.7948 237.3938 15.70792997449626
LEMUR-2-AMANDA-SVANTE   
1 48269U 21034B   26095.73405684  .00035211  00000+0  11998-2 0  9999
2 48269  97.5790 172.3399 0004316 139.9741 220.1818 15.30290766269963
LEMUR-2-SPECIAL-K       
1 48273U 21034F   26095.74531293  .00102780  00000+0  18104-2 0  9993
2 48273  97.5671 178.3040 0002135 188.2812 171.8404 15.50064032270421
LEMUR-2-EMBRIONOVIS     
1 56970U 23084AQ  26095.85269703  .00018953  00000+0  54755-3 0  9990
2 56970  97.6187 237.4272 0008804 205.1323 154.9493 15.35666375156576
LEMUR-2-MANO            
1 57390U 23100E   26095.61589682  .00233655  00000+0  18422-2 0  9999
2 57390  99.4463 127.2766 0009084 189.1653 170.9439 15.70660577150694
LEMUR-2-DEVERILL-M-T    
1 57391U 23100F   26095.56299550  .00028972  00000+0  81649-3 0  9992
2 57391  99.4552 113.5691 0005425 283.5101  76.5532 15.36399859150083
LEMUR-2-BASS            
1 58259U 23174D   26095.72069556  .00021174  00000+0  51670-3 0  9994
2 58259  97.3851 179.5525 0008246  78.0742 282.1428 15.40855128134190
